ONEWEB-0233             
1 48795U 21045AE  24121.85646341  .00000094  00000+0  21501-3 0  9996
2 48795  87.9048  53.9242 0001706  82.0237 278.1087 13.15550320142096
ONEWEB-0190             
1 48796U 21045AF  24121.85250297  .00000037  00000+0  64496-4 0  9996
2 48796  87.9048  53.8881 0001718 113.4340 246.6971 13.15548894142165
ONEWEB-0236             
1 48797U 21045AG  24121.86993782  .00000159  00000+0  38742-3 0  9990
2 48797  87.9053  53.8766 0001967  83.7904 276.3450 13.15549970142051
ONEWEB-0248             
1 48798U 21045AH  24121.88261360  .00000212  00000+0  53020-3 0  9999
2 48798  87.9045  53.8689 0002306 101.2798 258.8591 13.15549267142210
ONEWEB-0225             
1 48799U 21045AJ  24121.82874028 -.00000019  00000+0 -83267-4 0  9999
2 48799  87.9050  53.8892 0001885  95.7696 264.3649 13.15549540142218
ONEWEB-0215             
1 48800U 21045AK  24121.87468020  .00000215  00000+0  53629-3 0  9992
2 48800  87.9043  53.8571 0002094 108.7589 251.3769 13.15552483142091
ONEWEB-0216             
1 48801U 21045AL  24121.88419779  .00000220  00000+0  54900-3 0  9990
2 48801  87.9045  53.8956 0001620  80.1826 279.9487 13.15551469142100
ONEWEB-0239             
1 48802U 21045AM  24121.88896032  .00000157  00000+0  38400-3 0  9998
2 48802  87.9054  53.8661 0002383 105.5267 254.6126 13.15550707142140
